GAOFEN 1                
1 39150U 13018A   23263.39003518  .00001289  00000+0  19226-3 0  9998
2 39150  98.0221 333.1561 0019343 242.5503 117.3739 14.76448064560607
VNREDSAT 1              
1 39160U 13021B   23263.39053646  .00001174  00000+0  23796-3 0  9990
2 39160  98.0323 332.9016 0001144 101.1801 258.9530 14.63025073553862
ARIRANG-5 (KOMPSAT-5)   
1 39227U 13042A   23263.41447774  .00003133  00000+0  22813-3 0  9995
2 39227  97.6198  88.1063 0000913  14.4217 345.7035 15.04495618553444
SKYSAT-A                
1 39418U 13066C   23263.14117310  .00005158  00000+0  38890-3 0  9994
2 39418  97.5233 326.4373 0026768 145.3546 214.9430 15.02596708537619
DUBAISAT-2              
1 39419U 13066D   23263.33081484  .00005352  00000+0  46172-3 0  9996
2 39419  97.4138 276.7513 0013526 160.2526 199.9223 14.97599767535956
GPM-CORE                
1 39574U 14009C   23262.47256902  .00022487  00000+0  31708-3 0  9996
2 39574  64.9917  65.2362 0013048 261.7097  98.2570 15.56514724543045
SENTINEL-1A             
1 39634U 14016A   23263.36205623  .00000372  00000+0  88577-4 0  9990
2 39634  98.1825 269.3598 0001360  89.0833 271.0522 14.59200697504093
KAZEOSAT 1              
1 39731U 14024A   23263.39401466  .00000441  00000+0  14763-3 0  9995
2 39731  98.4229 338.8992 0001315 104.3656 255.7680 14.42021686494370
ALOS-2                  
1 39766U 14029A   23263.37588379  .00003583  00000+0  48629-3 0  9993
2 39766  97.9222 358.9060 0001539  99.4156 260.7230 14.79480736503633
KAZEOSAT 2              
1 40010U 14033A   23263.34989108  .00001015  00000+0  13396-3 0  9995
2 40010  97.6572 135.6589 0012792  21.0261 339.1476 14.82057859500561
HODOYOSHI-4             
1 40011U 14033B   23263.37685720  .00002169  00000+0  27164-3 0  9991
2 40011  97.6130 121.1744 0026346  13.9149 346.2785 14.82980251500215
DEIMOS-2                
1 40013U 14033D   23263.37933170  .00003682  00000+0  41604-3 0  9994
2 40013  97.7088 153.0069 0002591  70.4923 289.6573 14.87087840501491
HODOYOSHI-3             
1 40015U 14033F   23262.80642655  .00001491  00000+0  20169-3 0  9997
2 40015  97.6040  97.9407 0037164  44.8283 315.5922 14.79945279499246
SPOT 7                  
1 40053U 14034A   23263.38750939  .00000917  00000+0  20588-3 0  9996
2 40053  98.1953 329.3378 0001626  96.7729 263.3656 14.58811696491126
SKYSAT-B                
1 40072U 14037D   23262.41815013  .00001726  00000+0  22030-3 0  9991
2 40072  98.3465 157.2707 0004845 285.2555  74.8122 14.82865458497311
WORLDVIEW-3 (WV-3)      
1 40115U 14048A   23262.74895986  .00002136  00000+0  25833-3 0  9994
2 40115  97.8375 335.2146 0002190  50.4882 309.6526 14.84742022493310
GAOFEN 2                
1 40118U 14049A   23263.43490963  .00001998  00000+0  26616-3 0  9996
2 40118  97.7038 320.4401 0004067 243.5083 116.5713 14.80704502491162
YAOGAN 21               
1 40143U 14053A   23263.39348177  .00013742  00000+0  57429-3 0  9999
2 40143  97.2937 324.7136 0011259  45.6111 314.6047 15.23669732502582
YAOGAN 22               
1 40275U 14063A   23262.34073364 -.00000012  00000+0  89107-4 0  9999
2 40275 100.6263  27.9604 0005840 289.7821  70.2660 13.15464469428086
ASNARO                  
1 40298U 14070A   23263.37462373  .00018476  00000+0  87760-3 0  9992
2 40298  97.4344 344.4793 0006571 136.6072 223.5681 15.19260133492041
HODOYOSHI-1             
1 40299U 14070B   23263.42547927  .00017565  00000+0  50182-3 0  9994
2 40299  97.1836 323.7110 0008299 300.3554  59.6869 15.36027451493413
QSAT-EOS                
1 40301U 14070D   23263.39486241  .00119090  00000+0  84272-3 0  9998
2 40301  97.1409 333.9972 0008822 210.8034 149.2714 15.73583816494747
YAOGAN 23               
1 40305U 14071A   23263.39588955  .00022687  00000+0  71353-3 0  9999
2 40305  97.6633 229.8104 0002466  80.7037 279.4483 15.32972269490700
YAOGAN 24               
1 40310U 14072A   23263.40646450  .00001719  00000+0  25549-3 0  9992
2 40310  98.0256  24.2994 0013187 234.5609 125.4370 14.76230420476085
CBERS 4                 
1 40336U 14079A   23263.39106022  .00000279  00000+0  11217-3 0  9998
2 40336  98.4353 333.3033 0001921  85.2316 274.9089 14.35464309460396
RESURS P2               
1 40360U 14087A   23263.40936351  .00018446  00000+0  37695-3 0  9995
2 40360  97.1754 345.8170 0006770 210.3828 149.7030 15.46177786489063
YAOGAN 26               
1 40362U 14088A   23263.39196021  .00015054  00000+0  62913-3 0  9991
2 40362  97.0863 294.6009 0008099 323.2414  36.8267 15.23671520486063
SMAP                    
1 40376U 15003A   23262.43781590  .00000913  00000+0  18554-3 0  9999
2 40376  98.1304 267.6768 0000974  95.3869 264.7444 14.63412389461114
KOMPSAT-3A              
1 40536U 15014A   23263.36739065  .00009455  00000+0  49155-3 0  9993
2 40536  97.5782 207.0460 0004968 127.5972 232.5713 15.16274586468597
SENTINEL-2A             
1 40697U 15028A   23263.40334230  .00000272  00000+0  12047-3 0  9994
2 40697  98.5629 336.5515 0001295 101.1564 258.9765 14.30825754430626
GAOFEN 8                
1 40701U 15030A   23263.40332067  .00018598  00000+0  78737-3 0  9997
2 40701  97.6236  48.2329 0005756 207.3219 152.7715 15.23214399458411
CARBONITE 1 (CBNT-1)    
1 40718U 15032D   23263.41499134  .00002643  00000+0  38164-3 0  9991
2 40718  97.6816 111.6339 0015397 329.7307  30.3013 14.76943552441273
YAOGAN 27               
1 40878U 15040A   23263.34158612 -.00000036  00000+0  15510-4 0  9998
2 40878 100.0932 279.7728 0008450   9.1257 351.0009 13.15998860387520
GAOFEN 9-01             
1 40894U 15047A   23263.43198423  .00002555  00000+0  35599-3 0  9992
2 40894  97.7671 322.9262 0032360 162.7129 197.5192 14.78235895432074
LAPAN-A2                
1 40931U 15052B   23263.28236048  .00001496  00000+0  11682-3 0  9999
2 40931   5.9991 127.6291 0013272 204.6366 155.3127 14.77361866431430
YAOGAN 28               
1 41026U 15064A   23263.40874893  .00012352  00000+0  51924-3 0  9994
2 41026  97.6166  56.0063 0006057  53.3090 306.8702 15.23550552438260
YAOGAN 29               
1 41038U 15069A   23263.34284161  .00000873  00000+0  11837-3 0  9992
2 41038  98.0647 271.1306 0002388  75.4883 284.6594 14.81480909422367
KENT RIDGE 1            
1 41167U 15077B   23263.14613986  .00005216  00000+0  25185-3 0  9990
2 41167  14.9807  92.8939 0010475 263.8253  96.0874 15.12588664428886
TELEOS 1                
1 41169U 15077D   23262.12464460  .00016817  00000+0  70424-3 0  9995
2 41169  14.9813  43.6047 0008155 353.8019   6.2201 15.20814264429246
GAOFEN 4                
1 41194U 15083A   23262.75053465 -.00000327  00000+0  00000+0 0  9997
2 41194   0.0174 156.6412 0000645 354.8410 222.8187  1.00268235 28454
JASON-3                 
1 41240U 16002A   23262.79693002 -.00000052  00000+0  38214-4 0  9990
2 41240  66.0418  55.0106 0007493 266.7715  93.2443 12.80930944358889
SENTINEL-3A             
1 41335U 16011A   23263.39297155  .00000252  00000+0  12198-3 0  9994
2 41335  98.6292 329.0600 0001194 107.9338 252.1973 14.26739310395350
ZIYUAN 3-2 (ZY 3-2)     
1 41556U 16033A   23263.42251737  .00012368  00000+0  55344-3 0  9994
2 41556  97.4860 335.9436 0007290  71.2837 288.9189 15.21406114405836
NUSAT-1 (FRESCO)        
1 41557U 16033B   23263.36149395  .00277578  00000+0  13803-2 0  9993
2 41557  97.3865  16.2873 0003681 194.4087 165.7076 15.81188323408543
NUSAT-2 (BATATA)        
1 41558U 16033C   23263.38987913  .00549150  12666-3  13798-2 0  9998
2 41558  97.4149  25.8005 0004519 245.2733 114.8072 15.95646214408956
CARTOSAT-2C             
1 41599U 16040A   23263.32432319  .00009147  00000+0  43453-3 0  9994
2 41599  97.4261 322.0700 0012953  22.8985 337.2824 15.19372322401758
SKYSAT-C1               
1 41601U 16040C   23262.73487926  .00021982  00000+0  55244-3 0  9998
2 41601  97.1025 330.5318 0001722 138.3920 221.7458 15.39979225404626
LAPAN-A3                
1 41603U 16040E   23263.34472598  .00003963  00000+0  17112-3 0  9998
2 41603  97.1624 284.5226 0011971 349.3480  10.7502 15.22993154401971
BIROS                   
1 41604U 16040F   23263.05544339  .00013247  00000+0  44589-3 0  9994
2 41604  97.1562 295.3012 0008359 306.3859  53.6611 15.30864055402609
GAOFEN 3                
1 41727U 16049A   23263.37469865  .00000151  00000+0  59104-4 0  9994
2 41727  98.4091 270.0201 0001419  67.5137 292.6202 14.42226090374388
SKYSAT-C4               
1 41771U 16058B   23262.15920732  .00023041  00000+0  57841-3 0  9991
2 41771  97.0556 317.4643 0000753 125.8184 234.3133 15.40003691391502
SKYSAT-C5               
1 41772U 16058C   23263.39398770  .00016156  00000+0  48338-3 0  9990
2 41772  97.2031 319.8459 0002119  61.7386 298.4071 15.34622867390094
SKYSAT-C2               
1 41773U 16058D   23262.70259939  .00021189  00000+0  54098-3 0  9990
2 41773  97.0571 318.2168 0004359 119.2259 240.9424 15.39495429391595
SKYSAT-C3               
1 41774U 16058E   23262.73381921  .00024068  00000+0  53285-3 0  9997
2 41774  97.0566 321.6036 0009533 114.7180 245.5062 15.43735893391826
ALSAT 1B                
1 41785U 16059C   23263.42077680  .00000684  00000+0  12044-3 0  9997
2 41785  97.8533 297.2315 0009335 189.1654 170.9384 14.70534786373409
PATHFINDER 1            
1 41787U 16059E   23263.08302443  .00001084  00000+0  21055-3 0  9996
2 41787  97.8604 292.6295 0030685 148.9330 211.3696 14.64770457373004
SCATSAT 1               
1 41790U 16059H   23262.72041577  .00000449  00000+0  12375-3 0  9997
2 41790  98.2619 305.0869 0003942 215.4984 144.5949 14.51289716369671
GOKTURK 1A              
1 41875U 16073A   23263.36035911  .00000852  00000+0  17610-3 0  9998
2 41875  98.1234 156.4704 0001344  82.9301 277.2054 14.62787532362515
RESOURCESAT-2A          
1 41877U 16074A   23263.39515099  .00000295  00000+0  15403-3 0  9993
2 41877  98.6758 336.9340 0002093  96.7154 263.4262 14.21672382352119
CARTOSAT-2D             
1 41948U 17008A   23262.69753957  .00008818  00000+0  42173-3 0  9992
2 41948  97.4670 320.8381 0005910 153.4588 206.6951 15.19211660365527
